{"type": "FeatureCollection", "features": [ {"type": "Feature", "properties": {"norad_id": 31195, "name": "FENGYUN 1C DEB", "group": "fengyun-1c-debris", "lat": -5.54268699568971, "lon": -149.37718661958334, "alt_km": 769.8418912217176, "timestamp": "2025-12-24T11:33:00.297851+00:00", "meta": {"OBJECT_NAME": "FENGYUN 1C DEB", "OBJECT_ID": "1999-025BJZ", "EPOCH": "2025-12-22T07:30:58.600800", "MEAN_MOTION": 14.07984939, "ECCENTRICITY": 0.01723215, "INCLINATION": 98.778, "RA_OF_ASC_NODE": 29.3728, "ARG_OF_PERICENTER": 154.2351, "MEAN_ANOMALY": 206.7529, "EPHEMERIS_TYPE": 0, "CLASSIFICATION_TYPE": "U", "NORAD_CAT_ID": 31195, "ELEMENT_SET_NO": 999, "REV_AT_EPOCH": 96233, "BSTAR": 0.00023249282, "MEAN_MOTION_DOT": 4.11e-06, "MEAN_MOTION_DDOT": 0}, "tle": {"line1": "1 31195U 99025BJZ 25356.31317825  .00000411  00000+0  23249-3 0  9993", "line2": "2 31195  98.7780  29.3728 0172321 154.2351 206.7529 14.07984939962336"}}, "geometry": {"type": "Point", "coordinates": [-149.37718661958334, -5.54268699568971]}}, {"type": "Feature", "properties": {"norad_id": 31196, "name": "FENGYUN 1C DEB", "group": "fengyun-1c-debris", "lat": 31.999474888325388, "lon": -163.24230753961308, "alt_km": 768.77703011429, "timestamp": "2025-12-24T11:33:00.297861+00:00", "meta": {"OBJECT_NAME": "FENGYUN 1C DEB", "OBJECT_ID": "1999-025BKA", "EPOCH": "2025-12-20T07:28:00.268608", "MEAN_MOTION": 14.25476414, "ECCENTRICITY": 0.00582224, "INCLINATION": 98.5261, "RA_OF_ASC_NODE": 7.3249, "ARG_OF_PERICENTER": 189.9584, "MEAN_ANOMALY": 170.0447, "EPHEMERIS_TYPE": 0, "CLASSIFICATION_TYPE": "U", "NORAD_CAT_ID": 31196, "ELEMENT_SET_NO": 999, "REV_AT_EPOCH": 63603, "BSTAR": 0.00037193208, "MEAN_MOTION_DOT": 8.52e-06, "MEAN_MOTION_DDOT": 0}, "tle": {"line1": "1 31196U 99025BKA 25354.31111422  .00000852  00000+0  37193-3 0  9999", "line2": "2 31196  98.5261   7.3249 0058222 189.9584 170.0447 14.25476414636030"}}, "geometry": {"type": "Point", "coordinates": [-163.24230753961308, 31.999474888325388]}}, {"type": "Feature", "properties": {"norad_id": 31198, "name": "FENGYUN 1C DEB", "group": "fengyun-1c-debris", "lat": -36.812034812913964, "lon": -85.28476327895277, "alt_km": 1016.1977266367658, "timestamp": "2025-12-24T11:33:00.297872+00:00", "meta": {"OBJECT_NAME": "FENGYUN 1C DEB", "OBJECT_ID": "1999-025BKC", "EPOCH": "2025-12-23T13:31:50.289600", "MEAN_MOTION": 13.75523772, "ECCENTRICITY": 0.02033724, "INCLINATION": 98.6123, "RA_OF_ASC_NODE": 100.3982, "ARG_OF_PERICENTER": 322.4181, "MEAN_ANOMALY": 36.2902, "EPHEMERIS_TYPE": 0, "CLASSIFICATION_TYPE": "U", "NORAD_CAT_ID": 31198, "ELEMENT_SET_NO": 999, "REV_AT_EPOCH": 62902, "BSTAR": 0.00011369936, "MEAN_MOTION_DOT": 8.8e-07, "MEAN_MOTION_DDOT": 0}, "tle": {"line1": "1 31198U 99025BKC 25357.56377650  .00000088  00000+0  11370-3 0  9998", "line2": "2 31198  98.6123 100.3982 0203372 322.4181  36.2902 13.75523772629027"}}, "geometry": {"type": "Point", "coordinates": [-85.28476327895277, -36.812034812913964]}}, {"type": "Feature", "properties": {"norad_id": 31199, "name": "FENGYUN 1C DEB", "group": "fengyun-1c-debris", "lat": 20.672022681711294, "lon": -22.42732550521803, "alt_km": 900.8445188560645, "timestamp": "2025-12-24T11:33:00.297882+00:00", "meta": {"OBJECT_NAME": "FENGYUN 1C DEB", "OBJECT_ID": "1999-025BKD", "EPOCH": "2025-12-21T17:52:34.553568", "MEAN_MOTION": 14.0999366, "ECCENTRICITY": 0.00634845, "INCLINATION": 98.7153, "RA_OF_ASC_NODE": 338.24, "ARG_OF_PERICENTER": 233.847, "MEAN_ANOMALY": 304.6708, "EPHEMERIS_TYPE": 0, "CLASSIFICATION_TYPE": "U", "NORAD_CAT_ID": 31199, "ELEMENT_SET_NO": 999, "REV_AT_EPOCH": 96286, "BSTAR": 0.00010728098, "MEAN_MOTION_DOT": 1.5e-06, "MEAN_MOTION_DDOT": 0}, "tle": {"line1": "1 31199U 99025BKD 25355.74484437  .00000150  00000+0  10728-3 0  9995", "line2": "2 31199  98.7153 338.2400 0063484 233.8470 304.6708 14.09993660962866"}}, "geometry": {"type": "Point", "coordinates": [-22.42732550521803, 20.672022681711294]}}, {"type": "Feature", "properties": {"norad_id": 31201, "name": "FENGYUN 1C DEB", "group": "fengyun-1c-debris", "lat": -34.80005428663803, "lon": 33.54067217651997, "alt_km": 799.8601408894328, "timestamp": "2025-12-24T11:33:00.297892+00:00", "meta": {"OBJECT_NAME": "FENGYUN 1C DEB", "OBJECT_ID": "1999-025BKF", "EPOCH": "2025-12-24T02:53:05.063136", "MEAN_MOTION": 14.35225803, "ECCENTRICITY": 0.0142123, "INCLINATION": 99.0018, "RA_OF_ASC_NODE": 219.4895, "ARG_OF_PERICENTER": 318.0263, "MEAN_ANOMALY": 194.3154, "EPHEMERIS_TYPE": 0, "CLASSIFICATION_TYPE": "U", "NORAD_CAT_ID": 31201, "ELEMENT_SET_NO": 999, "REV_AT_EPOCH": 97414, "BSTAR": 0.00096014, "MEAN_MOTION_DOT": 3.028e-05, "MEAN_MOTION_DDOT": 0}, "tle": {"line1": "1 31201U 99025BKF 25358.12019749  .00003028  00000+0  96014-3 0  9993", "line2": "2 31201  99.0018 219.4895 0142123 318.0263 194.3154 14.35225803974145"}}, "geometry": {"type": "Point", "coordinates": [33.54067217651997, -34.80005428663803]}}, {"type": "Feature", "properties": {"norad_id": 31202, "name": "FENGYUN 1C DEB", "group": "fengyun-1c-debris", "lat": -82.85963766233044, "lon": 108.62822088728471, "alt_km": 657.1854353299959, "timestamp": "2025-12-24T11:33:00.297902+00:00", "meta": {"OBJECT_NAME": "FENGYUN 1C DEB", "OBJECT_ID": "1999-025BKG", "EPOCH": "2025-12-21T09:34:57.882720", "MEAN_MOTION": 14.84207348, "ECCENTRICITY": 0.00689637, "INCLINATION": 96.5715, "RA_OF_ASC_NODE": 39.1289, "ARG_OF_PERICENTER": 148.3475, "MEAN_ANOMALY": 226.6402, "EPHEMERIS_TYPE": 0, "CLASSIFICATION_TYPE": "U", "NORAD_CAT_ID": 31202, "ELEMENT_SET_NO": 999, "REV_AT_EPOCH": 99283, "BSTAR": 0.00068153485, "MEAN_MOTION_DOT": 5.909e-05, "MEAN_MOTION_DDOT": 0}, "tle": {"line1": "1 31202U 99025BKG 25355.39928105  .00005909  00000+0  68153-3 0  9998", "line2": "2 31202  96.5715  39.1289 0068963 148.3475 226.6402 14.84207348992833"}}, "geometry": {"type": "Point", "coordinates": [108.62822088728471, -82.85963766233044]}}, {"type": "Feature", "properties": {"norad_id": 31205, "name": "FENGYUN 1C DEB", "group": "fengyun-1c-debris", "lat": -11.58815484015572, "lon": -89.68556488326959, "alt_km": 712.4454058696119, "timestamp": "2025-12-24T11:33:00.297913+00:00", "meta": {"OBJECT_NAME": "FENGYUN 1C DEB", "OBJECT_ID": "1999-025BKK", "EPOCH": "2025-12-24T02:13:38.740800", "MEAN_MOTION": 14.23966903, "ECCENTRICITY": 0.0162343, "INCLINATION": 99.2284, "RA_OF_ASC_NODE": 91.8172, "ARG_OF_PERICENTER": 165.0672, "MEAN_ANOMALY": 195.5382, "EPHEMERIS_TYPE": 0, "CLASSIFICATION_TYPE": "U", "NORAD_CAT_ID": 31205, "ELEMENT_SET_NO": 999, "REV_AT_EPOCH": 97372, "BSTAR": 0.00014603, "MEAN_MOTION_DOT": 3.34e-06, "MEAN_MOTION_DDOT": 0}, "tle": {"line1": "1 31205U 99025BKK 25358.09280950  .00000334  00000+0  14603-3 0  9998", "line2": "2 31205  99.2284  91.8172 0162343 165.0672 195.5382 14.23966903973725"}}, "geometry": {"type": "Point", "coordinates": [-89.68556488326959, -11.58815484015572]}}, {"type": "Feature", "properties": {"norad_id": 31206, "name": "FENGYUN 1C DEB", "group": "fengyun-1c-debris", "lat": -10.46877754515375, "lon": 85.15030913947636, "alt_km": 800.7763016933832, "timestamp": "2025-12-24T11:33:00.297923+00:00", "meta": {"OBJECT_NAME": "FENGYUN 1C DEB", "OBJECT_ID": "1999-025BKL", "EPOCH": "2025-12-24T00:39:42.403104", "MEAN_MOTION": 14.40550579, "ECCENTRICITY": 0.0077204, "INCLINATION": 98.844, "RA_OF_ASC_NODE": 266.3301, "ARG_OF_PERICENTER": 328.5438, "MEAN_ANOMALY": 31.1144, "EPHEMERIS_TYPE": 0, "CLASSIFICATION_TYPE": "U", "NORAD_CAT_ID": 31206, "ELEMENT_SET_NO": 999, "REV_AT_EPOCH": 98008, "BSTAR": 0.00077913, "MEAN_MOTION_DOT": 2.522e-05, "MEAN_MOTION_DDOT": 0}, "tle": {"line1": "1 31206U 99025BKL 25358.02757411  .00002522  00000+0  77913-3 0  9997", "line2": "2 31206  98.8440 266.3301 0077204 328.5438  31.1144 14.40550579980080"}}, "geometry": {"type": "Point", "coordinates": [85.15030913947636, -10.46877754515375]}}, {"type": "Feature", "properties": {"norad_id": 31208, "name": "FENGYUN 1C DEB", "group": "fengyun-1c-debris", "lat": -78.77034263166982, "lon": -91.51517391221644, "alt_km": 682.9111684858053, "timestamp": "2025-12-24T11:33:00.297933+00:00", "meta": {"OBJECT_NAME": "FENGYUN 1C DEB", "OBJECT_ID": "1999-025BKN", "EPOCH": "2025-12-13T08:25:55.088256", "MEAN_MOTION": 14.61862471, "ECCENTRICITY": 0.00160842, "INCLINATION": 99.2396, "RA_OF_ASC_NODE": 131.1249, "ARG_OF_PERICENTER": 265.8015, "MEAN_ANOMALY": 126.2818, "EPHEMERIS_TYPE": 0, "CLASSIFICATION_TYPE": "U", "NORAD_CAT_ID": 31208, "ELEMENT_SET_NO": 999, "REV_AT_EPOCH": 70488, "BSTAR": 0.0052061327, "MEAN_MOTION_DOT": 0.00026113, "MEAN_MOTION_DDOT": 0}, "tle": {"line1": "1 31208U 99025BKN 25347.35133204  .00026113  00000+0  52061-2 0  9999", "line2": "2 31208  99.2396 131.1249 0016084 265.8015 126.2818 14.61862471704886"}}, "geometry": {"type": "Point", "coordinates": [-91.51517391221644, -78.77034263166982]}}, {"type": "Feature", "properties": {"norad_id": 31209, "name": "FENGYUN 1C DEB", "group": "fengyun-1c-debris", "lat": 40.417183810053864, "lon": 86.41294320104012, "alt_km": 744.4840945989654, "timestamp": "2025-12-24T11:33:00.297955+00:00", "meta": {"OBJECT_NAME": "FENGYUN 1C DEB", "OBJECT_ID": "1999-025BKP", "EPOCH": "2025-12-21T00:11:20.723136", "MEAN_MOTION": 14.43601309, "ECCENTRICITY": 0.00221345, "INCLINATION": 98.8841, "RA_OF_ASC_NODE": 90.4449, "ARG_OF_PERICENTER": 316.9887, "MEAN_ANOMALY": 42.9572, "EPHEMERIS_TYPE": 0, "CLASSIFICATION_TYPE": "U", "NORAD_CAT_ID": 31209, "ELEMENT_SET_NO": 999, "REV_AT_EPOCH": 64927, "BSTAR": 0.001595757, "MEAN_MOTION_DOT": 5.381e-05, "MEAN_MOTION_DDOT": 0}, "tle": {"line1": "1 31209U 99025BKP 25355.00787874  .00005381  00000+0  15958-2 0  9997", "line2": "2 31209  98.8841  90.4449 0022134 316.9887  42.9572 14.43601309649277"}}, "geometry": {"type": "Point", "coordinates": [86.41294320104012, 40.417183810053864]}}]}